GLOBALSTAR M094 [+]     
1 39074U 13005C   24063.58602927 -.00000093  00000+0  59924-4 0  9991
2 39074  51.9949 174.9581 0000548  99.7099 260.3830 12.62263275512946
GLOBALSTAR M096 [+]     
1 39075U 13005D   24063.75760613 -.00000082  00000+0  12040-3 0  9993
2 39075  52.0052 222.5828 0000626  80.9587 279.1351 12.62273159511889
GLOBALSTAR M078 [+]     
1 39076U 13005E   24063.81079931 -.00000183  00000+0 -44339-3 0  9996
2 39076  51.9886 307.5759 0000658 178.0438 182.0431 12.62260502510517
GLOBALSTAR M095 [+]     
1 39077U 13005F   24063.83670570 -.00000074  00000+0  16724-3 0  9990
2 39077  51.9808 304.9244 0000101  78.5512 281.5365 12.62264046510374
GLOBALSTAR M087 [+]     
1 52888U 22064A   24063.59991431 -.00000093  00000+0  67568-4 0  9999
2 52888  51.9741 216.5569 0010296  96.7498 263.4575 13.37566491 83395
